{"type": "FeatureCollection", "features": [{"type": "Feature", "properties": {"norad_id": 22490, "name": "SCD 1", "group": "resource", "lat": -19.121509259714085, "lon": 129.04931755225138, "alt_km": 755.7561988490879, "timestamp": "2025-12-15T14:57:57.496510+00:00", "meta": {"OBJECT_NAME": "SCD 1", "OBJECT_ID": "1993-009B", "EPOCH": "2025-12-14T21:37:05.469600", "MEAN_MOTION": 14.46000545, "ECCENTRICITY": 0.00418843, "INCLINATION": 24.9694, "RA_OF_ASC_NODE": 265.3477, "ARG_OF_PERICENTER": 347.9617, "MEAN_ANOMALY": 72.9494, "EPHEMERIS_TYPE": 0, "CLASSIFICATION_TYPE": "U", "NORAD_CAT_ID": 22490, "ELEMENT_SET_NO": 999, "REV_AT_EPOCH": 73441, "BSTAR": 9.9623799e-05, "MEAN_MOTION_DOT": 5.49e-06, "MEAN_MOTION_DDOT": 0}, "tle": {"line1": "1 22490U 93009B   25348.90075775  .00000549  00000+0  99624-4 0  9991", "line2": "2 22490  24.9694 265.3477 0041884 347.9617  72.9494 14.46000545734412"}}, "geometry": {"type": "Point", "coordinates": [129.04931755225138, -19.121509259714085]}}, {"type": "Feature", "properties": {"norad_id": 25397, "name": "TECHSAT 1B (GO-32)", "group": "resource", "lat": -8.475593573892409, "lon": 151.55013359565856, "alt_km": 815.5783713855317, "timestamp": "2025-12-15T14:57:57.496549+00:00", "meta": {"OBJECT_NAME": "TECHSAT 1B (GO-32)", "OBJECT_ID": "1998-043D", "EPOCH": "2025-12-14T21:13:30.647136", "MEAN_MOTION": 14.2437765, "ECCENTRICITY": 0.00019968, "INCLINATION": 98.9922, "RA_OF_ASC_NODE": 332.146, "ARG_OF_PERICENTER": 53.8079, "MEAN_ANOMALY": 306.3283, "EPHEMERIS_TYPE": 0, "CLASSIFICATION_TYPE": "U", "NORAD_CAT_ID": 25397, "ELEMENT_SET_NO": 999, "REV_AT_EPOCH": 42509, "BSTAR": 6.9086644e-05, "MEAN_MOTION_DOT": 1.13e-06, "MEAN_MOTION_DDOT": 0}, "tle": {"line1": "1 25397U 98043D   25348.88438249  .00000113  00000+0  69087-4 0  9996", "line2": "2 25397  98.9922 332.1460 0001996  53.8079 306.3283 14.24377650425097"}}, "geometry": {"type": "Point", "coordinates": [151.55013359565856, -8.475593573892409]}}, {"type": "Feature", "properties": {"norad_id": 25504, "name": "SCD 2", "group": "resource", "lat": -24.31362121587494, "lon": 20.001696049922653, "alt_km": 740.5829242833106, "timestamp": "2025-12-15T14:57:57.496562+00:00", "meta": {"OBJECT_NAME": "SCD 2", "OBJECT_ID": "1998-060A", "EPOCH": "2025-12-14T18:32:29.724000", "MEAN_MOTION": 14.45424603, "ECCENTRICITY": 0.00167282, "INCLINATION": 24.9936, "RA_OF_ASC_NODE": 129.361, "ARG_OF_PERICENTER": 335.2682, "MEAN_ANOMALY": 164.7949, "EPHEMERIS_TYPE": 0, "CLASSIFICATION_TYPE": "U", "NORAD_CAT_ID": 25504, "ELEMENT_SET_NO": 999, "REV_AT_EPOCH": 43361, "BSTAR": 8.8951027e-05, "MEAN_MOTION_DOT": 5e-06, "MEAN_MOTION_DDOT": 0}, "tle": {"line1": "1 25504U 98060A   25348.77256625  .00000500  00000+0  88951-4 0  9990", "line2": "2 25504  24.9936 129.3610 0016728 335.2682 164.7949 14.45424603433616"}}, "geometry": {"type": "Point", "coordinates": [20.001696049922653, -24.31362121587494]}}, {"type": "Feature", "properties": {"norad_id": 25757, "name": "DLR-TUBSAT", "group": "resource", "lat": -22.982607707337195, "lon": -22.069065759121468, "alt_km": 732.234708297352, "timestamp": "2025-12-15T14:57:57.496574+00:00", "meta": {"OBJECT_NAME": "DLR-TUBSAT", "OBJECT_ID": "1999-029B", "EPOCH": "2025-12-14T22:32:19.113504", "MEAN_MOTION": 14.52358518, "ECCENTRICITY": 0.00140358, "INCLINATION": 98.6565, "RA_OF_ASC_NODE": 333.5208, "ARG_OF_PERICENTER": 185.9643, "MEAN_ANOMALY": 174.1387, "EPHEMERIS_TYPE": 0, "CLASSIFICATION_TYPE": "U", "NORAD_CAT_ID": 25757, "ELEMENT_SET_NO": 999, "REV_AT_EPOCH": 40650, "BSTAR": 4.979434e-05, "MEAN_MOTION_DOT": 1.55e-06, "MEAN_MOTION_DDOT": 0}, "tle": {"line1": "1 25757U 99029B   25348.93911011  .00000155  00000+0  49794-4 0  9999", "line2": "2 25757  98.6565 333.5208 0014035 185.9643 174.1387 14.52358518406508"}}, "geometry": {"type": "Point", "coordinates": [-22.069065759121468, -22.982607707337195]}}, {"type": "Feature", "properties": {"norad_id": 25994, "name": "TERRA", "group": "resource", "lat": 50.809574115623235, "lon": -128.8970162958396, "alt_km": 683.6408582649447, "timestamp": "2025-12-15T14:57:57.496584+00:00", "meta": {"OBJECT_NAME": "TERRA", "OBJECT_ID": "1999-068A", "EPOCH": "2025-12-14T22:24:43.166880", "MEAN_MOTION": 14.6090422, "ECCENTRICITY": 0.00036018, "INCLINATION": 97.9748, "RA_OF_ASC_NODE": 40.5378, "ARG_OF_PERICENTER": 90.19, "MEAN_ANOMALY": 12.8116, "EPHEMERIS_TYPE": 0, "CLASSIFICATION_TYPE": "U", "NORAD_CAT_ID": 25994, "ELEMENT_SET_NO": 999, "REV_AT_EPOCH": 38270, "BSTAR": 0.00011495651, "MEAN_MOTION_DOT": 5.18e-06, "MEAN_MOTION_DDOT": 0}, "tle": {"line1": "1 25994U 99068A   25348.93383295  .00000518  00000+0  11496-3 0  9992", "line2": "2 25994  97.9748  40.5378 0003601  90.1900  12.8116 14.60904220382708"}}, "geometry": {"type": "Point", "coordinates": [-128.8970162958396, 50.809574115623235]}}, {"type": "Feature", "properties": {"norad_id": 27004, "name": "MAROC-TUBSAT", "group": "resource", "lat": -74.37535840173717, "lon": -60.01023414905982, "alt_km": 991.8752072728003, "timestamp": "2025-12-15T14:57:57.496595+00:00", "meta": {"OBJECT_NAME": "MAROC-TUBSAT", "OBJECT_ID": "2001-056D", "EPOCH": "2025-12-14T22:33:02.139840", "MEAN_MOTION": 13.7025299, "ECCENTRICITY": 0.00191107, "INCLINATION": 99.7912, "RA_OF_ASC_NODE": 157.4231, "ARG_OF_PERICENTER": 254.2683, "MEAN_ANOMALY": 231.2223, "EPHEMERIS_TYPE": 0, "CLASSIFICATION_TYPE": "U", "NORAD_CAT_ID": 27004, "ELEMENT_SET_NO": 999, "REV_AT_EPOCH": 20095, "BSTAR": 3.4032635e-05, "MEAN_MOTION_DOT": -1.7e-07, "MEAN_MOTION_DDOT": 0}, "tle": {"line1": "1 27004U 01056D   25348.93960810 -.00000017  00000+0  34033-4 0  9998", "line2": "2 27004  99.7912 157.4231 0019110 254.2683 231.2223 13.70252990200956"}}, "geometry": {"type": "Point", "coordinates": [-60.01023414905982, -74.37535840173717]}}, {"type": "Feature", "properties": {"norad_id": 27424, "name": "AQUA", "group": "resource", "lat": 12.735584717664171, "lon": -51.36531136701803, "alt_km": 688.6337537865465, "timestamp": "2025-12-15T14:57:57.496606+00:00", "meta": {"OBJECT_NAME": "AQUA", "OBJECT_ID": "2002-022A", "EPOCH": "2025-12-14T22:40:59.007360", "MEAN_MOTION": 14.6181409, "ECCENTRICITY": 0.00011688, "INCLINATION": 98.404, "RA_OF_ASC_NODE": 309.86, "ARG_OF_PERICENTER": 114.5725, "MEAN_ANOMALY": 290.1501, "EPHEMERIS_TYPE": 0, "CLASSIFICATION_TYPE": "U", "NORAD_CAT_ID": 27424, "ELEMENT_SET_NO": 999, "REV_AT_EPOCH": 25635, "BSTAR": 0.00024483854, "MEAN_MOTION_DOT": 1.173e-05, "MEAN_MOTION_DDOT": 0}, "tle": {"line1": "1 27424U 02022A   25348.94512740  .00001173  00000+0  24484-3 0  9995", "line2": "2 27424  98.4040 309.8600 0001168 114.5725 290.1501 14.61814090256356"}}, "geometry": {"type": "Point", "coordinates": [-51.36531136701803, 12.735584717664171]}}, {"type": "Feature", "properties": {"norad_id": 28051, "name": "IRS-P6 (RESOURCESAT-1)", "group": "resource", "lat": -28.944987530268595, "lon": 34.48133084890579, "alt_km": 820.1516374543489, "timestamp": "2025-12-15T14:57:57.496616+00:00", "meta": {"OBJECT_NAME": "IRS-P6 (RESOURCESAT-1)", "OBJECT_ID": "2003-046A", "EPOCH": "2025-12-14T22:56:39.155136", "MEAN_MOTION": 14.36075973, "ECCENTRICITY": 0.00642528, "INCLINATION": 98.2182, "RA_OF_ASC_NODE": 29.2603, "ARG_OF_PERICENTER": 174.0083, "MEAN_ANOMALY": 307.2898, "EPHEMERIS_TYPE": 0, "CLASSIFICATION_TYPE": "U", "NORAD_CAT_ID": 28051, "ELEMENT_SET_NO": 999, "REV_AT_EPOCH": 15408, "BSTAR": 8.2175423e-05, "MEAN_MOTION_DOT": 2.04e-06, "MEAN_MOTION_DDOT": 0}, "tle": {"line1": "1 28051U 03046A   25348.95600874  .00000204  00000+0  82175-4 0  9992", "line2": "2 28051  98.2182  29.2603 0064252 174.0083 307.2898 14.36075973154082"}}, "geometry": {"type": "Point", "coordinates": [34.48133084890579, -28.944987530268595]}}, {"type": "Feature", "properties": {"norad_id": 28220, "name": "SHIYAN-1 (SY-1)", "group": "resource", "lat": 76.53010727147488, "lon": 15.932890043780699, "alt_km": 476.0199015826647, "timestamp": "2025-12-15T14:57:57.496626+00:00", "meta": {"OBJECT_NAME": "SHIYAN-1 (SY-1)", "OBJECT_ID": "2004-012A", "EPOCH": "2025-12-14T18:11:32.800128", "MEAN_MOTION": 15.28207645, "ECCENTRICITY": 0.00055195, "INCLINATION": 97.8938, "RA_OF_ASC_NODE": 50.4154, "ARG_OF_PERICENTER": 317.9561, "MEAN_ANOMALY": 42.1253, "EPHEMERIS_TYPE": 0, "CLASSIFICATION_TYPE": "U", "NORAD_CAT_ID": 28220, "ELEMENT_SET_NO": 999, "REV_AT_EPOCH": 18287, "BSTAR": 0.00039784318, "MEAN_MOTION_DOT": 0.00010864, "MEAN_MOTION_DDOT": 0}, "tle": {"line1": "1 28220U 04012A   25348.75801852  .00010864  00000+0  39784-3 0  9991", "line2": "2 28220  97.8938  50.4154 0005519 317.9561  42.1253 15.28207645182874"}}, "geometry": {"type": "Point", "coordinates": [15.932890043780699, 76.53010727147488]}}, {"type": "Feature", "properties": {"norad_id": 28376, "name": "AURA", "group": "resource", "lat": 43.98540958302177, "lon": 127.98193691292784, "alt_km": 685.7357846723617, "timestamp": "2025-12-15T14:57:57.496652+00:00", "meta": {"OBJECT_NAME": "AURA", "OBJECT_ID": "2004-026A", "EPOCH": "2025-12-14T21:54:40.659840", "MEAN_MOTION": 14.60951585, "ECCENTRICITY": 0.00012719, "INCLINATION": 98.3186, "RA_OF_ASC_NODE": 299.1496, "ARG_OF_PERICENTER": 93.7926, "MEAN_ANOMALY": 266.342, "EPHEMERIS_TYPE": 0, "CLASSIFICATION_TYPE": "U", "NORAD_CAT_ID": 28376, "ELEMENT_SET_NO": 999, "REV_AT_EPOCH": 13930, "BSTAR": 0.00024418133, "MEAN_MOTION_DOT": 1.148e-05, "MEAN_MOTION_DDOT": 0}, "tle": {"line1": "1 28376U 04026A   25348.91297060  .00001148  00000+0  24418-3 0  9999", "line2": "2 28376  98.3186 299.1496 0001271  93.7926 266.3420 14.60951585139303"}}, "geometry": {"type": "Point", "coordinates": [127.98193691292784, 43.98540958302177]}}]}